OBJECT_NAME,OBJECT_ID,EPOCH,MEAN_MOTION,ECCENTRICITY,INCLINATION,RA_OF_ASC_NODE,ARG_OF_PERICENTER,MEAN_ANOMALY,EPHEMERIS_TYPE,CLASSIFICATION_TYPE,NORAD_CAT_ID,ELEMENT_SET_NO,REV_AT_EPOCH,BSTAR,MEAN_MOTION_DOT,MEAN_MOTION_DDOT
MONITOR-3 (RS58S),2023-091Q,2026-06-16T06:45:11.571552,15.27827556,.00131163,97.5085,230.7206,103.6582,256.6118,0,U,57180,999,16415,.33100855E-3,.8942E-4,0
MONITOR-4 (RS57S),2023-091S,2026-06-16T04:40:48.085536,15.27910857,.00131097,97.5079,230.6048,104.2135,256.0562,0,U,57182,999,16414,.33504838E-3,.9076E-4,0
MONITOR-2 (RS39S),2023-091U,2026-06-16T06:12:25.671744,15.18903550,.00127128,97.5073,225.5475,113.8567,246.4001,0,U,57184,999,16381,.20982024E-3,.4318E-4,0
SVYATOBOR 1 (RS60S),2023-091X,2026-06-16T06:32:48.975648,15.26602729,.0010884,97.5091,231.0847,97.0602,263.1875,0,U,57187,999,16417,.29445879E-3,.7649E-4,0
HORS 1,2023-091Y,2026-06-16T06:12:05.120640,15.26709661,.00103539,97.5069,230.8327,97.1386,263.1030,0,U,57188,999,16417,.32185851E-3,.8394E-4,0
VIZARD-METEO (RS38S),2023-091Z,2026-06-16T07:13:02.537184,15.36003143,.00083198,97.5094,236.7677,80.4667,279.7516,0,U,57189,999,16455,.39486675E-3,.13783E-3,0
SITRO-AIS 6 (CHIRKIN),2023-091AC,2026-06-16T06:16:55.343424,15.25920702,.00130972,97.5069,230.2763,109.3115,250.9541,0,U,57192,999,16414,.34757515E-3,.8865E-4,0
SITRO-AIS 8 (ANOKHIN),2023-091AD,2026-06-16T07:17:01.300992,15.32116048,.00118015,97.5058,232.7794,102.6444,257.6118,0,U,57193,999,16431,.37578867E-3,.11602E-3,0
SITRO-AIS 7 (FARTUSHNIY),2023-091AE,2026-06-16T04:46:44.146848,15.25607216,.00129447,97.5067,230.0387,110.3686,249.8944,0,U,57194,999,16412,.32685462E-3,.8253E-4,0
AVION KALUGA 650,2023-091AF,2026-06-16T05:46:41.791872,15.20344647,.00118817,97.5090,226.8210,112.1130,248.1367,0,U,57195,999,16388,.24180796E-3,.52E-4,0
HORS 2,2023-091AG,2026-06-16T05:59:35.578176,15.31873319,.00094023,97.5091,234.2664,90.6248,269.6070,0,U,57196,999,16438,.37117457E-3,.11363E-3,0
A-SEANSAT-PG1,2023-091AH,2026-06-16T07:04:49.325376,15.36934980,.00083213,97.5084,236.8571,87.7598,272.4599,0,U,57197,999,16457,.40922962E-3,.14724E-3,0
SITRO-AIS 10 (BURDAEV),2023-091AK,2026-06-16T06:34:08.775552,15.38583885,.00075779,97.5084,237.7938,83.0927,277.1180,0,U,57199,999,16462,.45403709E-3,.17245E-3,0
SITRO-AIS 9 (SHCHUKIN),2023-091AM,2026-06-16T07:11:44.556000,15.38093393,.00078237,97.5082,237.5512,83.1288,277.0846,0,U,57201,999,16461,.43275139E-3,.16171E-3,0
UTMN 2 (RS27S),2023-091AP,2026-06-16T03:30:49.468896,15.32031789,.00093107,97.5090,234.3528,86.9005,273.3302,0,U,57203,999,16438,.3712738E-3,.11422E-3,0
SITRO-AIS 12 (SMIRENNIY),2023-091AQ,2026-06-16T06:58:28.862112,15.38386481,.000736,97.5095,238.0084,78.2651,281.9419,0,U,57204,999,16463,.44664527E-3,.16853E-3,0
SITRO-AIS 11 (SHEFFER),2023-091AU,2026-06-16T07:18:09.213984,15.38810587,.00072392,97.5093,238.2685,78.0430,282.1626,0,U,57208,999,16465,.42621945E-3,.163E-3,0
H2SAT (HEINRICH HERTZ),2023-093A,2026-06-14T16:22:38.496000,1.00272092,.00008601,0.0576,110.9536,82.8758,315.5159,0,U,57213,999,1089,0,.9E-7,0
KUZGTU 1 (RS47S),2023-091AV,2026-06-16T05:58:52.235616,15.29845700,.00123352,97.5066,231.7196,100.8863,259.3766,0,U,57217,999,16423,.36655068E-3,.10544E-3,0
QIANKUN-1,2023-103B,2026-06-15T08:46:25.019040,16.08420909,.00293788,96.1468,211.3446,145.9035,214.4147,0,U,57422,999,16700,.23232943E-4,.20233E-3,.1838074E-5
FENGYUN 3F,2023-111A,2026-06-16T08:09:38.668896,14.19938959,.00015875,98.6835,237.3645,94.1891,265.9467,0,U,57490,999,14874,.36518132E-4,.34E-6,0
HJ-2F,2023-116A,2026-06-16T06:23:44.678112,15.22309749,.00099362,97.3837,172.5009,54.8992,305.3175,0,U,57519,999,15861,.26695851E-3,.609E-4,0
XRISM,2023-137A,2026-06-16T06:24:04.995072,15.12459575,.00079676,31.0033,5.5643,314.6443,45.3546,0,U,57800,999,15272,.23546523E-3,.4297E-4,0
METEOR-M2 4,2024-039A,2026-06-16T06:27:20.450880,14.22429447,.00072312,98.7010,126.5785,163.5389,196.6025,0,U,59051,999,11913,.1981115E-4,0,0
GRBBETA,2024-128C,2026-06-16T06:58:52.460544,15.06634918,.00407684,61.9886,219.4111,134.4896,225.9542,0,U,60237,999,10613,.19394891E-3,.2722E-4,0
TRANSPORTER-11 OBJECT A,2024-149A,2026-06-16T04:11:01.836384,15.32892502,.00027035,97.3735,247.1069,197.3235,162.7915,0,U,60468,999,10190,.22919005E-3,.7203E-4,0
WARATAH SEED-1,2024-149B,2026-06-16T04:46:33.960288,15.35925410,.00014449,97.3694,247.7723,181.0659,179.0582,0,U,60469,999,10196,.30622828E-3,.10631E-3,0
PHISAT 2,2024-149C,2026-06-16T04:44:37.747104,15.31056953,.00009204,97.3760,246.4188,173.6199,186.5054,0,U,60470,999,10184,.27193191E-3,.8083E-4,0
LEMUR-2-TOMATOKECHUP,2024-149D,2026-06-16T04:41:13.746336,15.36017182,.00013254,97.3806,249.2392,177.5329,182.5921,0,U,60471,999,10201,.26406406E-3,.9181E-4,0
