MONITOR-3 (RS58S)       
1 57180U 23091Q   26167.28138393  .00008942  00000+0  33101-3 0  9998
2 57180  97.5085 230.7206 0013116 103.6582 256.6118 15.27827556164158
MONITOR-4 (RS57S)       
1 57182U 23091S   26167.19500099  .00009076  00000+0  33505-3 0  9993
2 57182  97.5079 230.6048 0013109 104.2135 256.0562 15.27910857164142
MONITOR-2 (RS39S)       
1 57184U 23091U   26167.25863046  .00004318  00000+0  20982-3 0  9995
2 57184  97.5073 225.5475 0012712 113.8567 246.4001 15.18903550163815
SVYATOBOR 1 (RS60S)     
1 57187U 23091X   26167.27278907  .00007649  00000+0  29446-3 0  9990
2 57187  97.5091 231.0847 0010884  97.0602 263.1875 15.26602729164172
HORS 1                  
1 57188U 23091Y   26167.25839260  .00008394  00000+0  32186-3 0  9997
2 57188  97.5069 230.8327 0010353  97.1386 263.1030 15.26709661164175
VIZARD-METEO (RS38S)    
1 57189U 23091Z   26167.30072381  .00013783  00000+0  39487-3 0  9996
2 57189  97.5094 236.7677 0008319  80.4667 279.7516 15.36003143164550
SITRO-AIS 6 (CHIRKIN)   
1 57192U 23091AC  26167.26175166  .00008865  00000+0  34758-3 0  9991
2 57192  97.5069 230.2763 0013097 109.3115 250.9541 15.25920702164140
SITRO-AIS 8 (ANOKHIN)   
1 57193U 23091AD  26167.30348728  .00011602  00000+0  37579-3 0  9990
2 57193  97.5058 232.7794 0011801 102.6444 257.6118 15.32116048164313
SITRO-AIS 7 (FARTUSHNIY)
1 57194U 23091AE  26167.19912207  .00008253  00000+0  32685-3 0  9998
2 57194  97.5067 230.0387 0012944 110.3686 249.8944 15.25607216164129
AVION KALUGA 650        
1 57195U 23091AF  26167.24076148  .00005200  00000+0  24181-3 0  9991
2 57195  97.5090 226.8210 0011881 112.1130 248.1367 15.20344647163881
HORS 2                  
1 57196U 23091AG  26167.24971734  .00011363  00000+0  37117-3 0  9997
2 57196  97.5091 234.2664 0009402  90.6248 269.6070 15.31873319164385
A-SEANSAT-PG1           
1 57197U 23091AH  26167.29501534  .00014724  00000+0  40923-3 0  9993
2 57197  97.5084 236.8571 0008321  87.7598 272.4599 15.36934980164573
SITRO-AIS 10 (BURDAEV)  
1 57199U 23091AK  26167.27371268  .00017245  00000+0  45404-3 0  9992
2 57199  97.5084 237.7938 0007577  83.0927 277.1180 15.38583885164629
SITRO-AIS 9 (SHCHUKIN)  
1 57201U 23091AM  26167.29982125  .00016171  00000+0  43275-3 0  9999
2 57201  97.5082 237.5512 0007823  83.1288 277.0846 15.38093393164619
UTMN 2 (RS27S)          
1 57203U 23091AP  26167.14640589  .00011422  00000+0  37127-3 0  9993
2 57203  97.5090 234.3528 0009310  86.9005 273.3302 15.32031789164388
SITRO-AIS 12 (SMIRENNIY)
1 57204U 23091AQ  26167.29061183  .00016853  00000+0  44665-3 0  9995
2 57204  97.5095 238.0084 0007360  78.2651 281.9419 15.38386481164636
SITRO-AIS 11 (SHEFFER)  
1 57208U 23091AU  26167.30427331  .00016300  00000+0  42622-3 0  9990
2 57208  97.5093 238.2685 0007239  78.0430 282.1626 15.38810587164659
H2SAT (HEINRICH HERTZ)  
1 57213U 23093A   26165.68239000  .00000009  00000+0  00000+0 0  9990
2 57213   0.0576 110.9536 0000860  82.8758 315.5159  1.00272092 10895
KUZGTU 1 (RS47S)        
1 57217U 23091AV  26167.24921569  .00010544  00000+0  36655-3 0  9998
2 57217  97.5066 231.7196 0012335 100.8863 259.3766 15.29845700164231
QIANKUN-1               
1 57422U 23103B   26166.36556735  .00020233  18381-5  23233-4 0  9993
2 57422  96.1468 211.3446 0029378 145.9035 214.4147 16.08420909167009
FENGYUN 3F              
1 57490U 23111A   26167.34003089  .00000034  00000+0  36518-4 0  9995
2 57490  98.6835 237.3645 0001587  94.1891 265.9467 14.19938959148740
HJ-2F                   
1 57519U 23116A   26167.26648933  .00006090  00000+0  26696-3 0  9999
2 57519  97.3837 172.5009 0009936  54.8992 305.3175 15.22309749158611
XRISM                   
1 57800U 23137A   26167.26672448  .00004297  00000+0  23547-3 0  9992
2 57800  31.0033   5.5643 0007967 314.6443  45.3546 15.12459575152727
METEOR-M2 4             
1 59051U 24039A   26167.26898670  .00000000  00000+0  19811-4 0  9999
2 59051  98.7010 126.5785 0007231 163.5389 196.6025 14.22429447119132
GRBBETA                 
1 60237U 24128C   26167.29088496  .00002722  00000+0  19395-3 0  9995
2 60237  61.9886 219.4111 0040768 134.4896 225.9542 15.06634918106130
TRANSPORTER-11 OBJECT A 
1 60468U 24149A   26167.17432681  .00007203  00000+0  22919-3 0  9995
2 60468  97.3735 247.1069 0002703 197.3235 162.7915 15.32892502101900
WARATAH SEED-1          
1 60469U 24149B   26167.19900417  .00010631  00000+0  30623-3 0  9995
2 60469  97.3694 247.7723 0001444 181.0659 179.0582 15.35925410101964
PHISAT 2                
1 60470U 24149C   26167.19765911  .00008083  00000+0  27193-3 0  9991
2 60470  97.3760 246.4188 0000920 173.6199 186.5054 15.31056953101842
LEMUR-2-TOMATOKECHUP    
1 60471U 24149D   26167.19529799  .00009181  00000+0  26406-3 0  9990
2 60471  97.3806 249.2392 0001325 177.5329 182.5921 15.36017182102015
